---
http_interactions:
- request:
    method: post
    uri: https://api.spacexdata.com/v4/starlink/query
    body:
      encoding: UTF-8
      string: "{}"
    headers:
      Content-Type:
      - application/json
      User-Agent:
      - Faraday v1.4.1
      Accept-Encoding:
      - gzip;q=1.0,deflate;q=0.6,identity;q=0.3
      Accept:
      - "*/*"
  response:
    status:
      code: 200
      message: OK
    headers:
      Date:
      - Thu, 22 Apr 2021 03:01:41 GMT
      Content-Type:
      - application/json; charset=utf-8
      Transfer-Encoding:
      - chunked
      Connection:
      - keep-alive
      Set-Cookie:
      - __cfduid=de45543b6ca1059494a935d39955030fc1619060501; expires=Sat, 22-May-21
        03:01:41 GMT; path=/; domain=.spacexdata.com; HttpOnly; SameSite=Lax; Secure
      Access-Control-Allow-Origin:
      - "*"
      Access-Control-Expose-Headers:
      - spacex-api-cache,spacex-api-response-time
      Cache-Control:
      - max-age=3600
      Content-Security-Policy:
      - 'default-src ''self'';base-uri ''self'';block-all-mixed-content;font-src ''self''
        https: data:;frame-ancestors ''self'';img-src ''self'' data:;object-src ''none'';script-src
        ''self'';script-src-attr ''none'';style-src ''self'' https: ''unsafe-inline'';upgrade-insecure-requests'
      Etag:
      - '"325f-OGPS9CpmyXYPnWRTWcovZD/cHRE"'
      Expect-Ct:
      - max-age=0
      Referrer-Policy:
      - no-referrer
      Spacex-Api-Cache:
      - MISS
      Spacex-Api-Cache-Online:
      - 'true'
      Spacex-Api-Response-Time:
      - 8ms
      Strict-Transport-Security:
      - max-age=15552000; includeSubDomains
      Vary:
      - Accept-Encoding
      - Origin
      X-Content-Type-Options:
      - nosniff
      X-Dns-Prefetch-Control:
      - 'off'
      X-Download-Options:
      - noopen
      X-Frame-Options:
      - SAMEORIGIN
      X-Permitted-Cross-Domain-Policies:
      - none
      X-Xss-Protection:
      - '0'
      Cf-Cache-Status:
      - DYNAMIC
      Cf-Request-Id:
      - '09991fc44f0000bbe893959000000001'
      Report-To:
      - '{"endpoints":[{"url":"https:\/\/a.nel.cloudflare.com\/report?s=jdDAEeYLTtQpJWolaFBnAmMbN5GXZGVM6Cb5yRTeMbyFneXJSWK4Yf%2BpIxPeyf75C7gFj89ml6Tf0QtgvfwLxF%2FkYY2xm9As91Dr%2F5khTI36nx4%3D"}],"group":"cf-nel","max_age":604800}'
      Nel:
      - '{"report_to":"cf-nel","max_age":604800}'
      Server:
      - cloudflare
      Cf-Ray:
      - 643b9be6edbabbe8-LHR
      Alt-Svc:
      - h3-27=":443"; ma=86400, h3-28=":443"; ma=86400, h3-29=":443"; ma=86400
    body:
      encoding: ASCII-8BIT
      string: '{"docs":[{"spaceTrack":{"CCSDS_OMM_VERS":"2.0","COMMENT":"GENERATED
        VIA SPACE-TRACK.ORG API","CREATION_DATE":"2020-10-13T04:16:08","ORIGINATOR":"18
        SPCS","OBJECT_NAME":"STARLINK-30","OBJECT_ID":"2019-029K","CENTER_NAME":"EARTH","REF_FRAME":"TEME","TIME_SYSTEM":"UTC","MEAN_ELEMENT_THEORY":"SGP4","EPOCH":"2020-10-13T02:56:59.566560","MEAN_MOTION":16.43170483,"ECCENTRICITY":0.0003711,"INCLINATION":52.9708,"RA_OF_ASC_NODE":332.0356,"ARG_OF_PERICENTER":120.7278,"MEAN_ANOMALY":242.0157,"EPHEMERIS_TYPE":0,"CLASSIFICATION_TYPE":"U","NORAD_CAT_ID":44244,"ELEMENT_SET_NO":999,"REV_AT_EPOCH":7775,"BSTAR":0.0022139,"MEAN_MOTION_DOT":0.47180237,"MEAN_MOTION_DDOT":0.000012426,"SEMIMAJOR_AXIS":6535.519,"PERIOD":87.635,"APOAPSIS":159.809,"PERIAPSIS":154.958,"OBJECT_TYPE":"PAYLOAD","RCS_SIZE":"LARGE","COUNTRY_CODE":"US","LAUNCH_DATE":"2019-05-24","SITE":"AFETR","DECAY_DATE":"2020-10-13","DECAYED":1,"FILE":2850561,"GP_ID":163365918,"TLE_LINE0":"0
        STARLINK-30","TLE_LINE1":"1 44244U 19029K   20287.12291165  .47180237  12426-4  22139-2
        0  9995","TLE_LINE2":"2 44244  52.9708 332.0356 0003711 120.7278 242.0157
        16.43170483 77756"},"version":"v0.9","launch":"5eb87d30ffd86e000604b378","longitude":null,"latitude":null,"height_km":null,"velocity_kms":null,"id":"5eed770f096e59000698560d"},{"spaceTrack":{"CCSDS_OMM_VERS":"2.0","COMMENT":"GENERATED
        VIA SPACE-TRACK.ORG API","CREATION_DATE":"2020-09-28T19:26:08","ORIGINATOR":"18
        SPCS","OBJECT_NAME":"STARLINK-74","OBJECT_ID":"2019-029BL","CENTER_NAME":"EARTH","REF_FRAME":"TEME","TIME_SYSTEM":"UTC","MEAN_ELEMENT_THEORY":"SGP4","EPOCH":"2020-09-28T18:35:08.710368","MEAN_MOTION":16.29892189,"ECCENTRICITY":0.0002076,"INCLINATION":52.9971,"RA_OF_ASC_NODE":48.1405,"ARG_OF_PERICENTER":323.1313,"MEAN_ANOMALY":37.5805,"EPHEMERIS_TYPE":0,"CLASSIFICATION_TYPE":"U","NORAD_CAT_ID":44293,"ELEMENT_SET_NO":999,"REV_AT_EPOCH":7653,"BSTAR":0.0024534,"MEAN_MOTION_DOT":0.1135935,"MEAN_MOTION_DDOT":0.000012115,"SEMIMAJOR_AXIS":6570.966,"PERIOD":88.349,"APOAPSIS":194.195,"PERIAPSIS":191.467,"OBJECT_TYPE":"PAYLOAD","RCS_SIZE":"LARGE","COUNTRY_CODE":"US","LAUNCH_DATE":"2019-05-24","SITE":"AFETR","DECAY_DATE":"2020-09-29","DECAYED":1,"FILE":2837086,"GP_ID":162391575,"TLE_LINE0":"0
        STARLINK-74","TLE_LINE1":"1 44293U 19029BL  20272.77440637  .11359350  12115-4  24534-2
        0  9995","TLE_LINE2":"2 44293  52.9971  48.1405 0002076 323.1313  37.5805
        16.29892189 76534"},"version":"v0.9","launch":"5eb87d30ffd86e000604b378","longitude":null,"latitude":null,"height_km":null,"velocity_kms":null,"id":"5eed770f096e59000698560e"},{"spaceTrack":{"CCSDS_OMM_VERS":"2.0","COMMENT":"GENERATED
        VIA SPACE-TRACK.ORG API","CREATION_DATE":"2020-10-13T17:46:09","ORIGINATOR":"18
        SPCS","OBJECT_NAME":"STARLINK-29","OBJECT_ID":"2019-029J","CENTER_NAME":"EARTH","REF_FRAME":"TEME","TIME_SYSTEM":"UTC","MEAN_ELEMENT_THEORY":"SGP4","EPOCH":"2020-10-13T17:09:39.946752","MEAN_MOTION":16.50981164,"ECCENTRICITY":0.0008105,"INCLINATION":52.9786,"RA_OF_ASC_NODE":228.8138,"ARG_OF_PERICENTER":330.1078,"MEAN_ANOMALY":31.0927,"EPHEMERIS_TYPE":0,"CLASSIFICATION_TYPE":"U","NORAD_CAT_ID":44243,"ELEMENT_SET_NO":999,"REV_AT_EPOCH":7928,"BSTAR":0.00010982,"MEAN_MOTION_DOT":0.11982673,"MEAN_MOTION_DDOT":0.000012791,"SEMIMAJOR_AXIS":6514.89,"PERIOD":87.22,"APOAPSIS":142.035,"PERIAPSIS":131.474,"OBJECT_TYPE":"PAYLOAD","RCS_SIZE":"LARGE","COUNTRY_CODE":"US","LAUNCH_DATE":"2019-05-24","SITE":"AFETR","DECAY_DATE":"2020-10-13","DECAYED":1,"FILE":2851295,"GP_ID":163381397,"TLE_LINE0":"0
        STARLINK-29","TLE_LINE1":"1 44243U 19029J   20287.71504568  .11982673  12791-4  10982-3
        0  9997","TLE_LINE2":"2 44243  52.9786 228.8138 0008105 330.1078  31.0927
        16.50981164 79283"},"version":"v0.9","launch":"5eb87d30ffd86e000604b378","longitude":null,"latitude":null,"height_km":null,"velocity_kms":null,"id":"5eed770f096e59000698560f"},{"spaceTrack":{"CCSDS_OMM_VERS":"2.0","COMMENT":"GENERATED
        VIA SPACE-TRACK.ORG API","CREATION_DATE":"2021-04-21T19:20:26","ORIGINATOR":"18
        SPCS","OBJECT_NAME":"STARLINK-76","OBJECT_ID":"2019-029BE","CENTER_NAME":"EARTH","REF_FRAME":"TEME","TIME_SYSTEM":"UTC","MEAN_ELEMENT_THEORY":"SGP4","EPOCH":"2021-04-21T14:05:26.204640","MEAN_MOTION":15.54298908,"ECCENTRICITY":0.0004408,"INCLINATION":52.9947,"RA_OF_ASC_NODE":175.4443,"ARG_OF_PERICENTER":35.5835,"MEAN_ANOMALY":324.5468,"EPHEMERIS_TYPE":0,"CLASSIFICATION_TYPE":"U","NORAD_CAT_ID":44287,"ELEMENT_SET_NO":999,"REV_AT_EPOCH":10602,"BSTAR":0.00085622,"MEAN_MOTION_DOT":0.00056909,"MEAN_MOTION_DDOT":0,"SEMIMAJOR_AXIS":6782.328,"PERIOD":92.646,"APOAPSIS":407.183,"PERIAPSIS":401.204,"OBJECT_TYPE":"PAYLOAD","RCS_SIZE":"LARGE","COUNTRY_CODE":"US","LAUNCH_DATE":"2019-05-24","SITE":"AFETR","DECAY_DATE":null,"DECAYED":0,"FILE":3022491,"GP_ID":175884085,"TLE_LINE0":"0
        STARLINK-76","TLE_LINE1":"1 44287U 19029BE  21111.58710885  .00056909  00000-0  85622-3
        0  9999","TLE_LINE2":"2 44287  52.9947 175.4443 0004408  35.5835 324.5468
        15.54298908106028"},"version":"v0.9","launch":"5eb87d30ffd86e000604b378","longitude":-53.073460493399345,"latitude":27.7263397759166,"height_km":402.37757143991803,"velocity_kms":7.674655887571443,"id":"5eed770f096e590006985610"},{"spaceTrack":{"CCSDS_OMM_VERS":"2.0","COMMENT":"GENERATED
        VIA SPACE-TRACK.ORG API","CREATION_DATE":"2020-09-02T18:57:38","ORIGINATOR":"18
        SPCS","OBJECT_NAME":"STARLINK-23","OBJECT_ID":"2019-029C","CENTER_NAME":"EARTH","REF_FRAME":"TEME","TIME_SYSTEM":"UTC","MEAN_ELEMENT_THEORY":"SGP4","EPOCH":"2020-09-02T05:50:39.789312","MEAN_MOTION":16.40837491,"ECCENTRICITY":0.0004551,"INCLINATION":52.9945,"RA_OF_ASC_NODE":186.9776,"ARG_OF_PERICENTER":271.9057,"MEAN_ANOMALY":198.4437,"EPHEMERIS_TYPE":0,"CLASSIFICATION_TYPE":"U","NORAD_CAT_ID":44237,"ELEMENT_SET_NO":999,"REV_AT_EPOCH":7120,"BSTAR":0.0015299,"MEAN_MOTION_DOT":0.23336896,"MEAN_MOTION_DDOT":0.000012391,"SEMIMAJOR_AXIS":6541.712,"PERIOD":87.76,"APOAPSIS":166.554,"PERIAPSIS":160.6,"OBJECT_TYPE":"PAYLOAD","RCS_SIZE":"LARGE","COUNTRY_CODE":"US","LAUNCH_DATE":"2019-05-24","SITE":"AFETR","DECAY_DATE":"2020-09-02","DECAYED":1,"FILE":2813120,"GP_ID":160599026,"TLE_LINE0":"0
        STARLINK-23","TLE_LINE1":"1 44237U 19029C   20246.24351608 +.23336896 +12391-4
        +15299-2 0  9992","TLE_LINE2":"2 44237 052.9945 186.9776 0004551 271.9057
        198.4437 16.40837491071205"},"version":"v0.9","launch":"5eb87d30ffd86e000604b378","longitude":null,"latitude":null,"height_km":null,"velocity_kms":null,"id":"5eed770f096e590006985611"},{"spaceTrack":{"CCSDS_OMM_VERS":"2.0","COMMENT":"GENERATED
        VIA SPACE-TRACK.ORG API","CREATION_DATE":"2020-08-09T19:11:44","ORIGINATOR":"18
